ONEWEB-0300             
1 49089U 21075Q   25187.13969515 -.00000308  00000+0 -89163-3 0  9999
2 49089  87.8862  59.4678 0001744  92.2706 267.8623 13.12444596190803
ONEWEB-0301             
1 49090U 21075R   25186.66605477 -.00000323  00000+0 -93317-3 0  9995
2 49090  87.8863  59.5688 0001761  95.8725 264.2604 13.12442502189114
ONEWEB-0302             
1 49091U 21075S   25187.18674496  .00000159  00000+0  40530-3 0  9995
2 49091  87.8863  59.4664 0002020  70.9537 289.1810 13.12442098190164
ONEWEB-0304             
1 49092U 21075T   25186.67158724 -.00000018  00000+0 -78317-4 0  9991
2 49092  87.9054  74.8467 0001776  77.1068 283.0262 13.17650542187941
ONEWEB-0305             
1 49093U 21075U   25186.74077886 -.00000024  00000+0 -95262-4 0  9994
2 49093  87.9056  74.8099 0001535  70.5267 289.6031 13.17648799187987
ONEWEB-0308             
1 49094U 21075V   25187.18025698  .00000352  00000+0  94190-3 0  9998
2 49094  87.8864  59.4623 0001852  82.7726 277.3613 13.12442693190190
ONEWEB-0309             
1 49095U 21075W   25186.74415474  .00000031  00000+0  45388-4 0  9995
2 49095  87.9057  74.8261 0002158  69.4960 290.6403 13.17647983187956
ONEWEB-0310             
1 49096U 21075X   25187.19484865 -.00000043  00000+0 -15384-3 0  9993
2 49096  87.8873  59.5024 0001873  78.0581 282.0757 13.12442429190805
